[
    {
        "Altitude(m)": 612513.9006693147,
        "Argument of Periapsis(deg)": 0.0,
        "Eccentricity": 0.0,
        "Inclination(deg)": 60.0,
        "Latitude(deg)": -28.135863148899496,
        "Longitude(deg)": 62.91314826781271,
        "Mean Anomaly(deg)": -147.2727,
        "RAAN(deg)": 325.0,
        "Satellite Name": "Test1 1443",
        "Satellite Number": 1443,
        "Semi-Major Axis(m)": 6980739.136638005,
        "Time(s)": 0
    },
    {
        "Altitude(m)": 612708.2681567159,
        "Argument of Periapsis(deg)": 0.00010418945913296404,
        "Eccentricity": 0.0,
        "Inclination(deg)": 60.0,
        "Latitude(deg)": -28.6476019261775,
        "Longitude(deg)": 63.27037902634447,
        "Mean Anomaly(deg)": -146.65259385453814,
        "RAAN(deg)": 324.99957995086027,
        "Satellite Name": "Test1 1443",
        "Satellite Number": 1443,
        "Semi-Major Axis(m)": 6980739.136638005,
        "Time(s)": 10
    }
]